JCSAT-13                
1 38331U 12023A   21037.56698691 -.00000364  00000-0  00000-0 0  9993
2 38331   0.0107 144.1358 0000805 238.1340  82.7401  1.00271343 31915
VINASAT-2               
1 38332U 12023B   21037.59563271 -.00000337  00000-0  00000-0 0  9992
2 38332   0.0409 279.5729 0002168  57.8184 145.7826  1.00271241 27049
GCOM-W1 (SHIZUKU)       
1 38337U 12025A   21037.58995515  .00000035  00000-0  17928-4 0  9993
2 38337  98.2169 340.1879 0001013  14.6987 158.2156 14.57110304464102
ARIRANG-3 (KOMPSAT-3)   
1 38338U 12025B   21037.57511497  .00000057  00000-0  20977-4 0  9998
2 38338  98.1746 338.9103 0012069 121.1513 239.0871 14.61647921465535
SDS-4                   
1 38339U 12025C   21037.08819573  .00000029  00000-0  13410-4 0  9994
2 38339  98.3171  88.6163 0008377  49.0961 311.0969 14.70617591467965
NIMIQ 6                 
1 38342U 12026A   21037.54553488 -.00000180  00000-0  00000-0 0  9996
2 38342   0.0571 280.0274 0001882  41.5491 280.5790  1.00271062 30802
CHINASAT 2A (ZX 2A)     
1 38352U 12028A   21037.57827184 -.00000300  00000-0  00000-0 0  9993
2 38352   0.0539 271.0266 0001862  88.5223  83.7657  1.00273520 31751
YAOGAN 15               
1 38354U 12029A   21037.48442857 -.00000027  00000-0  48372-4 0  9990
2 38354 100.6057 183.9736 0025628  42.2163 318.0925 13.18262283417615
INTELSAT 19 (IS-19)     
1 38356U 12030A   21037.57723764 -.00000065  00000-0  00000-0 0  9997
2 38356   0.0049 350.0060 0002963 343.8990 176.7907  1.00269923 30844
NUSTAR                  
1 38358U 12031A   21036.44184997  .00001018  00000-0  32491-4 0  9995
2 38358   6.0281  16.4470 0011556   6.8028 353.2257 14.88443613470763
ECHOSTAR 17             
1 38551U 12035A   21037.44228898 -.00000082  00000-0  00000-0 0  9992
2 38551   0.0147  96.5840 0001847 220.2893 232.0005  1.00270545 31442
METEOSAT-10 (MSG-3)     
1 38552U 12035B   21037.17966194  .00000055  00000-0  00000-0 0  9990
2 38552   1.2280 358.1665 0001167  40.5652 171.6446  1.00271861 31233
SES-5                   
1 38652U 12036A   21037.20571700  .00000027  00000-0  00000-0 0  9990
2 38652   0.0226  77.0309 0001643 237.9173 260.6094  1.00269717 24879
KANOPUS-V 1             
1 38707U 12039A   21037.56631086  .00000679  00000-0  35155-4 0  9993
2 38707  97.4636 319.6130 0001769  76.7619  25.5910 15.19527025474053
BKA 2                   
1 38708U 12039B   21037.49732962 -.00001621  00000-0 -72116-4 0  9999
2 38708  97.3685 304.7314 0001688  72.7514  32.8713 15.20063909474045
EXACTVIEW-1 (ADS-1B)    
1 38709U 12039C   21037.58524116 -.00000019  00000-0  12477-4 0  9993
2 38709  99.0804  84.8675 0011634  46.3239 313.8901 14.24038745444161
TET-1                   
1 38710U 12039D   21037.53559321  .00003394  00000-0  55861-4 0  9998
2 38710  97.5758  84.0613 0003502  75.5237 284.6404 15.53132121480197
MKA-PN 1                
1 38711U 12039E   21037.37372885 -.00000022  00000-0  10800-4 0  9999
2 38711  99.0771  84.0362 0012240  47.5020 312.7190 14.24316696444204
TIANLIAN 1-03           
1 38730U 12040A   21037.22030272  .00000118  00000-0  00000-0 0  9999
2 38730   0.7848  98.7648 0006417 267.5443 229.9159  1.00273239 31368
COSMOS 2481             
1 38733U 12041A   21037.46098410  .00000037  00000-0  19961-3 0  9996
2 38733  82.4722 215.0805 0019109  18.6163 341.5611 12.42383929386851
GONETS-M 3              
1 38734U 12041B   21037.46356405  .00000008  00000-0 -11027-4 0  9993
2 38734  82.4733 210.2523 0016449  26.6993 333.4937 12.44816834387278
GONETS-M 4              
1 38736U 12041D   21037.46193748  .00000002  00000-0 -54585-4 0  9994
2 38736  82.4772 213.2575 0024720   8.8388 351.3155 12.43820036387116
INTELSAT 20 (IS-20)     
1 38740U 12043A   21037.26091082 -.00000031  00000-0  00000-0 0  9998
2 38740   0.0201 110.7943 0001650  75.3292 112.8838  1.00270604 31120
HYLAS 2                 
1 38741U 12043B   21037.17410480  .00000148  00000-0  00000-0 0  9994
2 38741   0.0347 266.6387 0001452  53.9523 269.5973  1.00269720 31143
EXPRESS-MD2             
1 38745U 12044B   21037.58615978  .00008681  26984-5  22724-3 0  9997
2 38745  49.8831 228.3381 2191201 204.3875 143.5712 11.07336069333259
INTELSAT 21 (IS-21)     
1 38749U 12045A   21037.48028236 -.00000292  00000-0  00000-0 0  9993
2 38749   0.0131 102.0540 0001847 220.9960 288.6549  1.00271356 30929
SPOT 6                  
1 38755U 12047A   21037.54323250 -.00000021  00000-0  53370-5 0  9996
2 38755  98.2184 106.8527 0001683  89.1272 271.0119 14.58545424447860
AEROCUBE 4.5A           
1 38767U 12048K   21037.47672865  .00000283  00000-0  38231-4 0  9998
2 38767  64.6645 224.4627 0138576  51.0499 310.2866 14.92573150 76724
AEROCUBE 4.5B           
1 38768U 12048L   21037.50574345  .00000390  00000-0  43566-4 0  9993
2 38768  64.6661 188.7117 0129858  45.3965 315.7655 14.96356274 76890
METOP-B                 
1 38771U 12049A   21037.61891503 -.00000013  00000-0  14114-4 0  9998
2 38771  98.6987  99.5461 0002250  66.3662  90.9403 14.21496841435295
BEIDOU 15               
1 38775U 12050B   21037.29761941 -.00000044  00000-0  00000-0 0  9999
2 38775  55.1500 128.4064 0013407 318.5349 123.1234  1.86232390 57227
