OBJECT_NAME,OBJECT_ID,EPOCH,MEAN_MOTION,ECCENTRICITY,INCLINATION,RA_OF_ASC_NODE,ARG_OF_PERICENTER,MEAN_ANOMALY,EPHEMERIS_TYPE,CLASSIFICATION_TYPE,NORAD_CAT_ID,ELEMENT_SET_NO,REV_AT_EPOCH,BSTAR,MEAN_MOTION_DOT,MEAN_MOTION_DDOT
JCSAT-13,2012-023A,2021-02-06T13:36:27.669024,1.00271343,.0000805,0.0107,144.1358,238.1340,82.7401,0,U,38331,999,3191,0,-.364E-5,0
VINASAT-2,2012-023B,2021-02-06T14:17:42.666144,1.00271241,.0002168,0.0409,279.5729,57.8184,145.7826,0,U,38332,999,2704,0,-.337E-5,0
GCOM-W1 (SHIZUKU),2012-025A,2021-02-06T14:09:32.124960,14.57110304,.0001013,98.2169,340.1879,14.6987,158.2156,0,U,38337,999,46410,.17928E-4,.35E-6,0
ARIRANG-3 (KOMPSAT-3),2012-025B,2021-02-06T13:48:09.933408,14.61647921,.0012069,98.1746,338.9103,121.1513,239.0871,0,U,38338,999,46553,.20977E-4,.57E-6,0
SDS-4,2012-025C,2021-02-06T02:07:00.111072,14.70617591,.0008377,98.3171,88.6163,49.0961,311.0969,0,U,38339,999,46796,.1341E-4,.29E-6,0
NIMIQ 6,2012-026A,2021-02-06T13:05:34.213632,1.00271062,.0001882,0.0571,280.0274,41.5491,280.5790,0,U,38342,999,3080,0,-.18E-5,0
CHINASAT 2A (ZX 2A),2012-028A,2021-02-06T13:52:42.686976,1.00273520,.0001862,0.0539,271.0266,88.5223,83.7657,0,U,38352,999,3175,0,-.3E-5,0
YAOGAN 15,2012-029A,2021-02-06T11:37:34.628448,13.18262283,.0025628,100.6057,183.9736,42.2163,318.0925,0,U,38354,999,41761,.48372E-4,-.27E-6,0
INTELSAT 19 (IS-19),2012-030A,2021-02-06T13:51:13.332096,1.00269923,.0002963,0.0049,350.0060,343.8990,176.7907,0,U,38356,999,3084,0,-.65E-6,0
NUSTAR,2012-031A,2021-02-05T10:36:15.837408,14.88443613,.0011556,6.0281,16.4470,6.8028,353.2257,0,U,38358,999,47076,.32491E-4,.1018E-4,0
ECHOSTAR 17,2012-035A,2021-02-06T10:36:53.767872,1.00270545,.0001847,0.0147,96.5840,220.2893,232.0005,0,U,38551,999,3144,0,-.82E-6,0
METEOSAT-10 (MSG-3),2012-035B,2021-02-06T04:18:42.791616,1.00271861,.0001167,1.2280,358.1665,40.5652,171.6446,0,U,38552,999,3123,0,.55E-6,0
SES-5,2012-036A,2021-02-06T04:56:13.948800,1.00269717,.0001643,0.0226,77.0309,237.9173,260.6094,0,U,38652,999,2487,0,.27E-6,0
KANOPUS-V 1,2012-039A,2021-02-06T13:35:29.258304,15.19527025,.0001769,97.4636,319.6130,76.7619,25.5910,0,U,38707,999,47405,.35155E-4,.679E-5,0
BKA 2,2012-039B,2021-02-06T11:56:09.279168,15.20063909,.0001688,97.3685,304.7314,72.7514,32.8713,0,U,38708,999,47404,-.72116E-4,-.1621E-4,0
EXACTVIEW-1 (ADS-1B),2012-039C,2021-02-06T14:02:44.836224,14.24038745,.0011634,99.0804,84.8675,46.3239,313.8901,0,U,38709,999,44416,.12477E-4,-.19E-6,0
TET-1,2012-039D,2021-02-06T12:51:15.253344,15.53132121,.0003502,97.5758,84.0613,75.5237,284.6404,0,U,38710,999,48019,.55861E-4,.3394E-4,0
MKA-PN 1,2012-039E,2021-02-06T08:58:10.172640,14.24316696,.001224,99.0771,84.0362,47.5020,312.7190,0,U,38711,999,44420,.108E-4,-.22E-6,0
TIANLIAN 1-03,2012-040A,2021-02-06T05:17:14.155008,1.00273239,.0006417,0.7848,98.7648,267.5443,229.9159,0,U,38730,999,3136,0,.118E-5,0
COSMOS 2481,2012-041A,2021-02-06T11:03:49.026240,12.42383929,.0019109,82.4722,215.0805,18.6163,341.5611,0,U,38733,999,38685,.19961E-3,.37E-6,0
GONETS-M 3,2012-041B,2021-02-06T11:07:31.933920,12.44816834,.0016449,82.4733,210.2523,26.6993,333.4937,0,U,38734,999,38727,-.11027E-4,.8E-7,0
GONETS-M 4,2012-041D,2021-02-06T11:05:11.398272,12.43820036,.002472,82.4772,213.2575,8.8388,351.3155,0,U,38736,999,38711,-.54585E-4,.2E-7,0
INTELSAT 20 (IS-20),2012-043A,2021-02-06T06:15:42.694848,1.00270604,.000165,0.0201,110.7943,75.3292,112.8838,0,U,38740,999,3112,0,-.31E-6,0
HYLAS 2,2012-043B,2021-02-06T04:10:42.654720,1.00269720,.0001452,0.0347,266.6387,53.9523,269.5973,0,U,38741,999,3114,0,.148E-5,0
EXPRESS-MD2,2012-044B,2021-02-06T14:04:04.204992,11.07336069,.2191201,49.8831,228.3381,204.3875,143.5712,0,U,38745,999,33325,.22724E-3,.8681E-4,.26984E-5
INTELSAT 21 (IS-21),2012-045A,2021-02-06T11:31:36.395904,1.00271356,.0001847,0.0131,102.0540,220.9960,288.6549,0,U,38749,999,3092,0,-.292E-5,0
SPOT 6,2012-047A,2021-02-06T13:02:15.288000,14.58545424,.0001683,98.2184,106.8527,89.1272,271.0119,0,U,38755,999,44786,.5337E-5,-.21E-6,0
AEROCUBE 4.5A,2012-048K,2021-02-06T11:26:29.355360,14.92573150,.0138576,64.6645,224.4627,51.0499,310.2866,0,U,38767,999,7672,.38231E-4,.283E-5,0
AEROCUBE 4.5B,2012-048L,2021-02-06T12:08:16.234080,14.96356274,.0129858,64.6661,188.7117,45.3965,315.7655,0,U,38768,999,7689,.43566E-4,.39E-5,0
METOP-B,2012-049A,2021-02-06T14:51:14.258592,14.21496841,.000225,98.6987,99.5461,66.3662,90.9403,0,U,38771,999,43529,.14114E-4,-.13E-6,0
BEIDOU 15,2012-050B,2021-02-06T07:08:34.317024,1.86232390,.0013407,55.1500,128.4064,318.5349,123.1234,0,U,38775,999,5722,0,-.44E-6,0
